{"fetched_at":"2026-03-30T13:17:50Z","count":15418,"tles":[{"name":"STARLINK-30581","line1":"1 58096U 23160X   26087.71065508  .00010599  00000+0  39394-3 0  9999","line2":"2 58096  43.0023 330.5513 0001080 266.5433  93.5296 15.27595582135855","category":"Starlink"}]}